[{"OBJECT_NAME":"STARLINK-31062","OBJECT_ID":"2023-200B","EPOCH":"2026-03-09T22:00:01.999584","MEAN_MOTION":15.1543737,"ECCENTRICITY":0.00014673,"INCLINATION":42.9995,"RA_OF_ASC_NODE":170.267,"ARG_OF_PERICENTER":276.1081,"MEAN_ANOMALY":93.2683,"EPHEMERIS_TYPE":0,"CLASSIFICATION_TYPE":"U","NORAD_CAT_ID":58590,"ELEMENT_SET_NO":999,"REV_AT_EPOCH":578,"BSTAR":0.10382483,"MEAN_MOTION_DOT":0.022068,"MEAN_MOTION_DDOT":0},{"OBJECT_NAME":"FENGYUN 1C DEB","OBJECT_ID":"1999-025CMK","EPOCH":"2026-03-07T03:30:19.798272","MEAN_MOTION":15.19499855,"ECCENTRICITY":0.00275543,"INCLINATION":98.8642,"RA_OF_ASC_NODE":134.1649,"ARG_OF_PERICENTER":306.5016,"MEAN_ANOMALY":53.3676,"EPHEMERIS_TYPE":0,"CLASSIFICATION_TYPE":"U","NORAD_CAT_ID":31934,"ELEMENT_SET_NO":999,"REV_AT_EPOCH":62119,"BSTAR":0.0037988961,"MEAN_MOTION_DOT":0.0008222,"MEAN_MOTION_DDOT":0}]
